NORAD_CAT_ID,OBJECT_NAME,OBJECT_TYPE,EPOCH,MEAN_MOTION,ECCENTRICITY,INCLINATION,RA_OF_ASC_NODE,ARG_OF_PERICENTER,MEAN_ANOMALY,BSTAR,MEAN_MOTION_DOT,MEAN_MOTION_DDOT,TLE_LINE0,TLE_LINE1,TLE_LINE2,SEMIMAJOR_AXIS,PERIOD,APOGEE,PERIGEE,DECAYED
53839.0,STARLINK-4784,PAYLOAD,2022-10-15 14:00:01,15.73240476,0.0001028,53.2148,127.4455,94.3728,147.571,-0.00018317,-0.0002628999999999,0.0,0 STARLINK-4784,1 53839U 22114X   22288.58334491 -.00026290  00000-0 -18317-3 0  9991,2 53839  53.2148 127.4455 0001028  94.3728 147.5710 15.73240476  1303,6727.78,91.531,350.336,348.95300000000015,0.0
53839.0,STARLINK-4784,PAYLOAD,2022-10-15 22:00:01,15.73359956,0.0001016,53.2162,125.7974,90.217,240.8703,-0.0039992,-0.00531421,0.0,0 STARLINK-4784,1 53839U 22114X   22288.91668981 -.00531421  00000-0 -39992-2 0  9990,2 53839  53.2162 125.7974 0001016  90.2170 240.8703 15.73359956  4800,6727.439,91.524,349.98800000000006,348.621,0.0
53839.0,STARLINK-4784,PAYLOAD,2022-10-16 06:00:00,15.73215229,0.000105,53.2144,124.147,83.5768,336.2629,-0.00026791,-0.00038073,0.0,0 STARLINK-4784,1 53839U 22114X   22289.25001157 -.00038073  00000-0 -26791-3 0  9993,2 53839  53.2144 124.1470 0001050  83.5768 336.2629 15.73215229  4856,6727.852,91.532,350.423,349.01,0.0
53839.0,STARLINK-4784,PAYLOAD,2022-10-16 14:00:01,15.73179435,0.0001214,53.2148,122.4969,90.9386,57.8347,0.00037741,0.00052633,0.0,0 STARLINK-4784,1 53839U 22114X   22289.58334491  .00052633  00000-0  37741-3 0  9992,2 53839  53.2148 122.4969 0001214  90.9386  57.8347 15.73179435  1302,6727.954000000002,91.534,350.636,349.00199999999984,0.0
53839.0,STARLINK-4784,PAYLOAD,2022-10-16 22:00:00,15.73178834,0.000118,53.2156,120.8499,71.9434,165.764,0.00030567,0.00042457,0.0,0 STARLINK-4784,1 53839U 22114X   22289.91667824  .00042457  00000-0  30567-3 0  9990,2 53839  53.2156 120.8499 0001180  71.9434 165.7640 15.73178834  1303,6727.956,91.534,350.61400000000015,349.027,0.0
53839.0,STARLINK-4784,PAYLOAD,2022-10-17 06:00:00,15.73207401,0.000103,53.2155,119.1983,77.5943,248.9541,-0.00026699,-0.00037932,0.0,0 STARLINK-4784,1 53839U 22114X   22290.25001157 -.00037932  00000-0 -26699-3 0  9995,2 53839  53.2155 119.1983 0001030  77.5943 248.9541 15.73207401  5011,6727.874,91.533,350.432,349.046,0.0
53839.0,STARLINK-4784,PAYLOAD,2022-10-17 14:00:01,15.73205766,0.0001164,53.2151,117.5486,84.9173,330.6140000000001,0.0004362,0.00061059,0.0,0 STARLINK-4784,1 53839U 22114X   22290.58334491  .00061059  00000-0  43620-3 0  9999,2 53839  53.2151 117.5486 0001164  84.9173 330.6140 15.73205766  5063,6727.879,91.533,350.527,348.961,0.0
53839.0,STARLINK-4784,PAYLOAD,2022-10-17 22:00:00,15.73219634,0.0001153,53.2144,115.9012,67.00399999999999,77.4598,-0.00024701,-0.0003517,0.0,0 STARLINK-4784,1 53839U 22114X   22290.91667824 -.00035170  00000-0 -24701-3 0  9991,2 53839  53.2144 115.9012 0001153  67.0040  77.4598 15.73219634  5124,6727.839,91.532,350.48,348.92800000000005,0.0
53839.0,STARLINK-4784,PAYLOAD,2022-10-18 14:00:01,15.7315339,8.859999999999999e-05,53.2145,112.6004,75.1218,247.1649,0.00022248,0.00030655,0.0,0 STARLINK-4784,1 53839U 22114X   22291.58334491  .00030655  00000-0  22248-3 0  9991,2 53839  53.2145 112.6004 0000886  75.1218 247.1649 15.73153390  1304,6728.028,91.536,350.48900000000015,349.297,0.0
53839.0,STARLINK-4784,PAYLOAD,2022-10-18 22:00:00,15.73202535,0.0001541999999999,53.2176,110.9518,79.5168,331.7415,2.3252e-05,2.644e-05,0.0,0 STARLINK-4784,1 53839U 22114X   22291.91667824  .00002644  00000-0  23252-4 0  9991,2 53839  53.2176 110.9518 0001542  79.5168 331.7415 15.73202535  5278,6727.888000000001,91.533,350.79,348.716,0.0
53839.0,STARLINK-4784,PAYLOAD,2022-10-19 08:00:01,15.73203538,0.0001004999999999,53.2144,108.8887,65.0016,187.3509,0.00010543,0.00014204,0.0,0 STARLINK-4784,1 53839U 22114X   22292.33334491  .00014204  00000-0  10543-3 0  9992,2 53839  53.2144 108.8887 0001005  65.0016 187.3509 15.73203538  5345,6727.885,91.533,350.426,349.074,0.0
53839.0,STARLINK-4784,PAYLOAD,2022-10-19 14:00:01,15.73228212,0.0001155,53.2144,107.6521,68.1191,160.9407,0.00023246,0.00032168,0.0,0 STARLINK-4784,1 53839U 22114X   22292.58334491  .00032168  00000-0  23246-3 0  9992,2 53839  53.2144 107.6521 0001155  68.1191 160.9407 15.73228212  1303,6727.815,91.532,350.457,348.903,0.0
53839.0,STARLINK-4784,PAYLOAD,2022-10-19 22:00:00,15.7326319,0.0001142,53.2158,106.0041,65.5852,252.4626,-0.00081752,-0.00114115,0.0,0 STARLINK-4784,1 53839U 22114X   22292.91667824 -.00114115  00000-0 -81752-3 0  9999,2 53839  53.2158 106.0041 0001142  65.5852 252.4626 15.73263190  5431,6727.715,91.53,350.348,348.81199999999984,0.0
53839.0,STARLINK-4784,PAYLOAD,2022-10-20 06:00:00,15.73227715,0.0001200999999999,53.2138,104.3526,65.5396,341.4685,-0.00025736,-0.00036624,0.0,0 STARLINK-4784,1 53839U 22114X   22293.25001157 -.00036624  00000-0 -25736-3 0  9996,2 53839  53.2138 104.3526 0001201  65.5396 341.4685 15.73227715  5489,6727.816,91.532,350.48900000000015,348.87300000000016,0.0
53839.0,STARLINK-4784,PAYLOAD,2022-10-20 14:00:01,15.73192648,0.000134,53.214,102.7031,66.0128,69.9283,-0.00029622,-0.00041972,0.0,0 STARLINK-4784,1 53839U 22114X   22293.58334491 -.00041972  00000-0 -29622-3 0  9992,2 53839  53.2140 102.7031 0001340  66.0128  69.9283 15.73192648  1307,6727.916,91.534,350.68300000000005,348.88,0.0
53839.0,STARLINK-4784,PAYLOAD,2022-10-20 22:00:00,15.73141927,0.0001486,53.2146,101.0555,54.7699,170.0763,0.00073438,0.00103465,0.0,0 STARLINK-4784,1 53839U 22114X   22293.91667824  .00103465  00000-0  73438-3 0  9996,2 53839  53.2146 101.0555 0001486  54.7699 170.0763 15.73141927  1305,6728.061,91.537,350.926,348.926,0.0
53839.0,STARLINK-4784,PAYLOAD,2022-10-21 06:00:00,15.73212931,0.0001250999999999,53.2149,99.4034,59.22,254.5707,-0.00016888,-0.00024266,0.0,0 STARLINK-4784,1 53839U 22114X   22294.25001157 -.00024266  00000-0 -16888-3 0  9994,2 53839  53.2149  99.4034 0001251  59.2200 254.5707 15.73212931  5649,6727.858,91.532,350.565,348.88199999999995,0.0
53839.0,STARLINK-4784,PAYLOAD,2022-10-21 14:00:01,15.7324951,0.0001266,53.2145,97.7544,54.5493,348.2144,0.00012473,0.00016957,0.0,0 STARLINK-4784,1 53839U 22114X   22294.58334491  .00016957  00000-0  12473-3 0  9992,2 53839  53.2145  97.7544 0001266  54.5493 348.2144 15.73249510  1308,6727.754,91.53,350.471,348.767,0.0
53839.0,STARLINK-4784,PAYLOAD,2022-10-21 22:00:00,15.73241633,0.0001465999999999,53.2131,96.1062,45.6776,86.0577,-0.00038012,-0.00053724,0.0,0 STARLINK-4784,1 53839U 22114X   22294.91667824 -.00053724  00000-0 -38012-3 0  9990,2 53839  53.2131  96.1062 0001466  45.6776  86.0577 15.73241633  5756,6727.776,91.531,350.62800000000016,348.655,0.0
53839.0,STARLINK-4784,PAYLOAD,2022-10-22 14:00:01,15.73182864,0.0001403,53.2133,92.8054,51.9402,257.6653,3.0048e-05,3.596e-05,0.0,0 STARLINK-4784,1 53839U 22114X   22295.58334491  .00003596  00000-0  30048-4 0  9997,2 53839  53.2133  92.8054 0001403  51.9402 257.6653 15.73182864  1307,6727.944,91.534,350.75300000000016,348.865,0.0
53839.0,STARLINK-4784,PAYLOAD,2022-10-22 22:00:00,15.73250099,0.0001625,53.2132,91.157,39.9689,358.5463,0.00049308,0.00069304,0.0,0 STARLINK-4784,1 53839U 22114X   22295.91667824  .00069304  00000-0  49308-3 0  9990,2 53839  53.2132  91.1570 0001625  39.9689 358.5463 15.73250099  1306,6727.752,91.53,350.711,348.524,0.0
53839.0,STARLINK-4784,PAYLOAD,2022-10-23 00:00:02,15.73325084,0.0001575999999999,53.2132,90.7441,41.4757,109.3353,-0.00052876,-0.00074573,0.0,0 STARLINK-4784,1 53839U 22114X   22296.00002315 -.00074573  00000-0 -52876-3 0  9999,2 53839  53.2132  90.7441 0001576  41.4757 109.3353 15.73325084  5926,6727.5390000000025,91.526,350.464,348.343,0.0
53839.0,STARLINK-4784,PAYLOAD,2022-10-23 14:00:01,15.73273935,0.0001460999999999,53.2134,87.8562,42.0082,174.5235,-0.00030962,-0.00043985,0.0,0 STARLINK-4784,1 53839U 22114X   22296.58334491 -.00043985  00000-0 -30962-3 0  9990,2 53839  53.2134  87.8562 0001461  42.0082 174.5235 15.73273935  1308,6727.684,91.529,350.532,348.566,0.0
53839.0,STARLINK-4784,PAYLOAD,2022-10-23 22:00:00,15.73252647,0.0001673,53.2128,86.2075,35.2311,270.2914,-0.00082636,-0.00115284,0.0,0 STARLINK-4784,1 53839U 22114X   22296.91667824 -.00115284  00000-0 -82636-3 0  9993,2 53839  53.2128  86.2075 0001673  35.2311 270.2914 15.73252647  1302,6727.745,91.53,350.736,348.485,0.0
53839.0,STARLINK-4784,PAYLOAD,2022-10-24 06:00:00,15.73117556,0.0001623,53.213,84.5557,48.4938,345.9945,-0.00044116,-0.00061866,0.0,0 STARLINK-4784,1 53839U 22114X   22297.25001157 -.00061866  00000-0 -44116-3 0  9999,2 53839  53.2130  84.5557 0001623  48.4938 345.9945 15.73117556  6114,6728.13,91.538,351.087,348.903,0.0
53839.0,STARLINK-4784,PAYLOAD,2022-10-24 14:00:01,15.73049699,0.0001684,53.2133,82.9073,43.9074,79.3763,0.00052765,0.00073608,0.0,0 STARLINK-4784,1 53839U 22114X   22297.58334491  .00073608  00000-0  52765-3 0  9999,2 53839  53.2133  82.9073 0001684  43.9074  79.3763 15.73049699  1304,6728.324000000001,91.542,351.32199999999995,349.056,0.0
53839.0,STARLINK-4784,PAYLOAD,2022-10-24 22:00:00,15.73114176,0.0001712,53.2133,81.259,33.6772,178.3664,0.0010946,0.00155301,0.0,0 STARLINK-4784,1 53839U 22114X   22297.91667824  .00155301  00000-0  10946-2 0  9990,2 53839  53.2133  81.2590 0001712  33.6772 178.3664 15.73114176  1306,6728.14,91.538,351.157,348.853,0.0
53839.0,STARLINK-4784,PAYLOAD,2022-10-25 00:00:00,15.73186001,0.0001699,53.2135,80.8461,32.4322,291.8084,0.00033659,0.00046854,0.0,0 STARLINK-4784,1 53839U 22114X   22298.00001157  .00046854  00000-0  33659-3 0  9991,2 53839  53.2135  80.8461 0001699  32.4322 291.8084 15.73186001  6232,6727.935,91.534,350.9430000000001,348.657,0.0
53839.0,STARLINK-4784,PAYLOAD,2022-10-25 14:00:01,15.73221514,0.0001857,53.2137,77.959,38.7181,351.1754,-9.0352e-05,-0.00013294,0.0,0 STARLINK-4784,1 53839U 22114X   22298.58334491 -.00013294  00000-0 -90352-4 0  9992,2 53839  53.2137  77.9590 0001857  38.7181 351.1754 15.73221514  6325,6727.834,91.532,350.9480000000001,348.449,0.0
